{"type": "FeatureCollection", "features": [ {"type": "Feature", "properties": {"norad_id": 36716, "name": "FENGYUN 1C DEB", "group": "fengyun-1c-debris", "lat": -79.79923075492663, "lon": -16.179997799045086, "alt_km": 925.0327556751918, "timestamp": "2025-12-26T06:43:29.800448+00:00", "meta": {"OBJECT_NAME": "FENGYUN 1C DEB", "OBJECT_ID": "1999-025EAN", "EPOCH": "2025-12-24T13:38:03.454656", "MEAN_MOTION": 13.8842033, "ECCENTRICITY": 0.01483644, "INCLINATION": 99.2293, "RA_OF_ASC_NODE": 277.4949, "ARG_OF_PERICENTER": 196.842, "MEAN_ANOMALY": 162.7782, "EPHEMERIS_TYPE": 0, "CLASSIFICATION_TYPE": "U", "NORAD_CAT_ID": 36716, "ELEMENT_SET_NO": 999, "REV_AT_EPOCH": 63095, "BSTAR": 0.00021899669, "MEAN_MOTION_DOT": 2.42e-06, "MEAN_MOTION_DDOT": 0}, "tle": {"line1": "1 36716U 99025EAN 25358.56809554  .00000242  00000+0  21900-3 0  9995", "line2": "2 36716  99.2293 277.4949 0148364 196.8420 162.7782 13.88420330630955"}}, "geometry": {"type": "Point", "coordinates": [-16.179997799045086, -79.79923075492663]}}, {"type": "Feature", "properties": {"norad_id": 36724, "name": "FENGYUN 1C DEB", "group": "fengyun-1c-debris", "lat": 41.583055547125625, "lon": -138.40277456829182, "alt_km": 734.5348585690044, "timestamp": "2025-12-26T06:43:29.800458+00:00", "meta": {"OBJECT_NAME": "FENGYUN 1C DEB", "OBJECT_ID": "1999-025EAW", "EPOCH": "2025-12-22T01:08:19.052736", "MEAN_MOTION": 14.25358317, "ECCENTRICITY": 0.01037225, "INCLINATION": 99.4676, "RA_OF_ASC_NODE": 28.5169, "ARG_OF_PERICENTER": 171.606, "MEAN_ANOMALY": 218.6674, "EPHEMERIS_TYPE": 0, "CLASSIFICATION_TYPE": "U", "NORAD_CAT_ID": 36724, "ELEMENT_SET_NO": 999, "REV_AT_EPOCH": 57605, "BSTAR": 0.0017254927, "MEAN_MOTION_DOT": 4.254e-05, "MEAN_MOTION_DDOT": 0}, "tle": {"line1": "1 36724U 99025EAW 25356.04744274  .00004254  00000+0  17255-2 0  9996", "line2": "2 36724  99.4676  28.5169 0103722 171.6060 218.6674 14.25358317576058"}}, "geometry": {"type": "Point", "coordinates": [-138.40277456829182, 41.583055547125625]}}, {"type": "Feature", "properties": {"norad_id": 36729, "name": "FENGYUN 1C DEB", "group": "fengyun-1c-debris", "lat": -0.26875968533317496, "lon": 161.61584323078702, "alt_km": 834.8018680190307, "timestamp": "2025-12-26T06:43:29.800468+00:00", "meta": {"OBJECT_NAME": "FENGYUN 1C DEB", "OBJECT_ID": "1999-025EBB", "EPOCH": "2025-12-23T16:34:25.146048", "MEAN_MOTION": 14.10327074, "ECCENTRICITY": 0.0045517, "INCLINATION": 98.7091, "RA_OF_ASC_NODE": 339.1491, "ARG_OF_PERICENTER": 224.4459, "MEAN_ANOMALY": 135.3057, "EPHEMERIS_TYPE": 0, "CLASSIFICATION_TYPE": "U", "NORAD_CAT_ID": 36729, "ELEMENT_SET_NO": 999, "REV_AT_EPOCH": 87406, "BSTAR": 0.0002234329, "MEAN_MOTION_DOT": 3.58e-06, "MEAN_MOTION_DDOT": 0}, "tle": {"line1": "1 36729U 99025EBB 25357.69056882  .00000358  00000+0  22343-3 0  9990", "line2": "2 36729  98.7091 339.1491 0045517 224.4459 135.3057 14.10327074874063"}}, "geometry": {"type": "Point", "coordinates": [161.61584323078702, -0.26875968533317496]}}, {"type": "Feature", "properties": {"norad_id": 36734, "name": "FENGYUN 1C DEB", "group": "fengyun-1c-debris", "lat": -20.222334559024436, "lon": 50.98911780287276, "alt_km": 834.9143980036533, "timestamp": "2025-12-26T06:43:29.800479+00:00", "meta": {"OBJECT_NAME": "FENGYUN 1C DEB", "OBJECT_ID": "1999-025EBG", "EPOCH": "2025-12-20T14:24:43.327872", "MEAN_MOTION": 14.25911964, "ECCENTRICITY": 0.00365777, "INCLINATION": 99.0553, "RA_OF_ASC_NODE": 41.7554, "ARG_OF_PERICENTER": 197.3577, "MEAN_ANOMALY": 162.6354, "EPHEMERIS_TYPE": 0, "CLASSIFICATION_TYPE": "U", "NORAD_CAT_ID": 36734, "ELEMENT_SET_NO": 999, "REV_AT_EPOCH": 82846, "BSTAR": 0.0010627583, "MEAN_MOTION_DOT": 2.503e-05, "MEAN_MOTION_DDOT": 0}, "tle": {"line1": "1 36734U 99025EBG 25354.60050148  .00002503  00000+0  10628-2 0  9999", "line2": "2 36734  99.0553  41.7554 0036577 197.3577 162.6354 14.25911964828466"}}, "geometry": {"type": "Point", "coordinates": [50.98911780287276, -20.222334559024436]}}, {"type": "Feature", "properties": {"norad_id": 36736, "name": "FENGYUN 1C DEB", "group": "fengyun-1c-debris", "lat": 57.480363235269635, "lon": 59.72442866340288, "alt_km": 768.9234124722298, "timestamp": "2025-12-26T06:43:29.800489+00:00", "meta": {"OBJECT_NAME": "FENGYUN 1C DEB", "OBJECT_ID": "1999-025EBJ", "EPOCH": "2025-12-19T22:50:38.532768", "MEAN_MOTION": 14.25518256, "ECCENTRICITY": 0.00607429, "INCLINATION": 98.8062, "RA_OF_ASC_NODE": 67.4431, "ARG_OF_PERICENTER": 119.7313, "MEAN_ANOMALY": 240.9929, "EPHEMERIS_TYPE": 0, "CLASSIFICATION_TYPE": "U", "NORAD_CAT_ID": 36736, "ELEMENT_SET_NO": 999, "REV_AT_EPOCH": 88718, "BSTAR": 0.0010514399, "MEAN_MOTION_DOT": 2.49e-05, "MEAN_MOTION_DDOT": 0}, "tle": {"line1": "1 36736U 99025EBJ 25353.95183487  .00002490  00000+0  10514-2 0  9990", "line2": "2 36736  98.8062  67.4431 0060742 119.7313 240.9929 14.25518256887185"}}, "geometry": {"type": "Point", "coordinates": [59.72442866340288, 57.480363235269635]}}, {"type": "Feature", "properties": {"norad_id": 36743, "name": "FENGYUN 1C DEB", "group": "fengyun-1c-debris", "lat": -79.96317824882863, "lon": 169.05879588446783, "alt_km": 789.1385637696603, "timestamp": "2025-12-26T06:43:29.800499+00:00", "meta": {"OBJECT_NAME": "FENGYUN 1C DEB", "OBJECT_ID": "1999-025EBR", "EPOCH": "2025-12-15T20:48:16.336800", "MEAN_MOTION": 14.29116099, "ECCENTRICITY": 0.0047177, "INCLINATION": 98.6557, "RA_OF_ASC_NODE": 38.1117, "ARG_OF_PERICENTER": 3.5743, "MEAN_ANOMALY": 356.5766, "EPHEMERIS_TYPE": 0, "CLASSIFICATION_TYPE": "U", "NORAD_CAT_ID": 36743, "ELEMENT_SET_NO": 999, "REV_AT_EPOCH": 60782, "BSTAR": 0.00095050245, "MEAN_MOTION_DOT": 2.395e-05, "MEAN_MOTION_DDOT": 0}, "tle": {"line1": "1 36743U 99025EBR 25349.86685575  .00002395  00000+0  95050-3 0  9991", "line2": "2 36743  98.6557  38.1117 0047177   3.5743 356.5766 14.29116099607827"}}, "geometry": {"type": "Point", "coordinates": [169.05879588446783, -79.96317824882863]}}, {"type": "Feature", "properties": {"norad_id": 36986, "name": "FENGYUN 1C DEB", "group": "fengyun-1c-debris", "lat": -57.65484082564568, "lon": -128.12565097180376, "alt_km": 798.0767188208429, "timestamp": "2025-12-26T06:43:29.800509+00:00", "meta": {"OBJECT_NAME": "FENGYUN 1C DEB", "OBJECT_ID": "1999-025EBS", "EPOCH": "2025-12-20T22:17:23.796096", "MEAN_MOTION": 14.14646349, "ECCENTRICITY": 0.0088071, "INCLINATION": 99.1446, "RA_OF_ASC_NODE": 61.1301, "ARG_OF_PERICENTER": 219.0076, "MEAN_ANOMALY": 140.4722, "EPHEMERIS_TYPE": 0, "CLASSIFICATION_TYPE": "U", "NORAD_CAT_ID": 36986, "ELEMENT_SET_NO": 999, "REV_AT_EPOCH": 81860, "BSTAR": 0.0013942, "MEAN_MOTION_DOT": 2.737e-05, "MEAN_MOTION_DDOT": 0}, "tle": {"line1": "1 36986U 99025EBS 25354.92874764  .00002737  00000+0  13942-2 0  9992", "line2": "2 36986  99.1446  61.1301 0088071 219.0076 140.4722 14.14646349818603"}}, "geometry": {"type": "Point", "coordinates": [-128.12565097180376, -57.65484082564568]}}, {"type": "Feature", "properties": {"norad_id": 36987, "name": "FENGYUN 1C DEB", "group": "fengyun-1c-debris", "lat": 40.22353826383683, "lon": -127.18768056092645, "alt_km": 868.2063533544724, "timestamp": "2025-12-26T06:43:29.800519+00:00", "meta": {"OBJECT_NAME": "FENGYUN 1C DEB", "OBJECT_ID": "1999-025EBT", "EPOCH": "2025-12-19T22:53:32.054208", "MEAN_MOTION": 13.45891786, "ECCENTRICITY": 0.0320403, "INCLINATION": 100.8195, "RA_OF_ASC_NODE": 235.2948, "ARG_OF_PERICENTER": 29.8332, "MEAN_ANOMALY": 332.0644, "EPHEMERIS_TYPE": 0, "CLASSIFICATION_TYPE": "U", "NORAD_CAT_ID": 36987, "ELEMENT_SET_NO": 999, "REV_AT_EPOCH": 60974, "BSTAR": 0.0011449, "MEAN_MOTION_DOT": 8.81e-06, "MEAN_MOTION_DDOT": 0}, "tle": {"line1": "1 36987U 99025EBT 25353.95384322  .00000881  00000+0  11449-2 0  9999", "line2": "2 36987 100.8195 235.2948 0320403  29.8332 332.0644 13.45891786609741"}}, "geometry": {"type": "Point", "coordinates": [-127.18768056092645, 40.22353826383683]}}, {"type": "Feature", "properties": {"norad_id": 36990, "name": "FENGYUN 1C DEB", "group": "fengyun-1c-debris", "lat": 49.054209686723816, "lon": -63.30213242567299, "alt_km": 940.1510650203918, "timestamp": "2025-12-26T06:43:29.800529+00:00", "meta": {"OBJECT_NAME": "FENGYUN 1C DEB", "OBJECT_ID": "1999-025EBW", "EPOCH": "2025-12-05T02:36:38.289600", "MEAN_MOTION": 13.56914719, "ECCENTRICITY": 0.0292772, "INCLINATION": 96.5839, "RA_OF_ASC_NODE": 290.134, "ARG_OF_PERICENTER": 44.0413, "MEAN_ANOMALY": 318.3658, "EPHEMERIS_TYPE": 0, "CLASSIFICATION_TYPE": "U", "NORAD_CAT_ID": 36990, "ELEMENT_SET_NO": 999, "REV_AT_EPOCH": 82784, "BSTAR": 0.0013157618, "MEAN_MOTION_DOT": 1.212e-05, "MEAN_MOTION_DDOT": 0}, "tle": {"line1": "1 36990U 99025EBW 25339.10877650  .00001212  00000+0  13158-2 0  9993", "line2": "2 36990  96.5839 290.1340 0292772  44.0413 318.3658 13.56914719827842"}}, "geometry": {"type": "Point", "coordinates": [-63.30213242567299, 49.054209686723816]}}, {"type": "Feature", "properties": {"norad_id": 36994, "name": "FENGYUN 1C DEB", "group": "fengyun-1c-debris", "lat": 56.10433269067955, "lon": -51.49063120989539, "alt_km": 999.6553248040627, "timestamp": "2025-12-26T06:43:29.800539+00:00", "meta": {"OBJECT_NAME": "FENGYUN 1C DEB", "OBJECT_ID": "1999-025ECA", "EPOCH": "2025-12-24T04:22:34.357440", "MEAN_MOTION": 13.90790861, "ECCENTRICITY": 0.01144801, "INCLINATION": 98.6443, "RA_OF_ASC_NODE": 319.643, "ARG_OF_PERICENTER": 261.4355, "MEAN_ANOMALY": 97.382, "EPHEMERIS_TYPE": 0, "CLASSIFICATION_TYPE": "U", "NORAD_CAT_ID": 36994, "ELEMENT_SET_NO": 999, "REV_AT_EPOCH": 81066, "BSTAR": 0.00017123213, "MEAN_MOTION_DOT": 1.85e-06, "MEAN_MOTION_DDOT": 0}, "tle": {"line1": "1 36994U 99025ECA 25358.18234210  .00000185  00000+0  17123-3 0  9990", "line2": "2 36994  98.6443 319.6430 0114480 261.4355  97.3820 13.90790861810661"}}, "geometry": {"type": "Point", "coordinates": [-51.49063120989539, 56.10433269067955]}}]}